OBJECT_NAME,OBJECT_ID,EPOCH,MEAN_MOTION,ECCENTRICITY,INCLINATION,RA_OF_ASC_NODE,ARG_OF_PERICENTER,MEAN_ANOMALY,EPHEMERIS_TYPE,CLASSIFICATION_TYPE,NORAD_CAT_ID,ELEMENT_SET_NO,REV_AT_EPOCH,BSTAR,MEAN_MOTION_DOT,MEAN_MOTION_DDOT
1998-067XY,1998-067XY,2026-01-16T06:45:46.004544,15.55032427,.00033844,51.6311,330.4500,49.8415,310.2872,0,U,66912,999,697,.6747417E-3,.45958E-3,0